{
  "type": "FeatureCollection",
  "municipio": "Piaçabuçu",
  "codigo_tse": "28355",
  "zona_eleitoral": "013ª ZE",
  "total_eleitores": 14386,
  "total_secoes": 44,
  "features": [
    {
      "type": "Feature",
      "geometry": {
        "type": "Polygon",
        "coordinates": [
          [
            [
              -36.44202975786734,
              -10.3599305229119
            ],
            [
              -36.41095385742188,
              -10.366787646484374
            ],
            [
              -36.440913389950445,
              -10.422798946429099
            ],
            [
              -36.4515099,
              -10.4136702
            ],
            [
              -36.4630962,
              -10.4084796
            ],
            [
              -36.4665733,
              -10.4094795
            ],
            [
              -36.4723183,
              -10.4147564
            ],
            [
              -36.47970418615822,
              -10.41916561799576
            ],
            [
              -36.44202975786734,
              -10.3599305229119
            ]
          ]
        ]
      },
      "properties": {
        "id": "centro",
        "nome": "Centro / Sede Histórica",
        "escola": "E. E. Correia Titara",
        "endereco": "Av. Ulisses Guedes, s/n, Centro",
        "coords": [
          -36.4412,
          -10.3788
        ],
        "secoes": [
          1,
          2,
          3,
          4,
          5,
          6,
          7,
          8,
          9,
          10,
          11
        ],
        "qtd_secoes": 11,
        "eleitores": 3600,
        "rymes": 1480,
        "rymes_pct": "41.1%",
        "kayro": 1180,
        "kayro_pct": "32.8%",
        "antonino": 940,
        "antonino_pct": "26.1%",
        "vencedor": "Rymes (MDB)",
        "lider_partido": "MDB",
        "status": "Disputa Acirrada",
        "vereador_top": "Viviane Santos (PP) - 152 votos"
      }
    },
    {
      "type": "Feature",
      "geometry": {
        "type": "Polygon",
        "coordinates": [
          [
            [
              -36.41095385742188,
              -10.366787646484374
            ],
            [
              -36.37355957090034,
              -10.372984413965089
            ],
            [
              -36.427273698486076,
              -10.434071068866524
            ],
            [
              -36.4307229,
              -10.4299539
            ],
            [
              -36.440913389950445,
              -10.422798946429099
            ],
            [
              -36.41095385742188,
              -10.366787646484374
            ]
          ]
        ]
      },
      "properties": {
        "id": "brasilia",
        "nome": "Bairro Brasília & São José",
        "escola": "E. M. Pe. Luís Barbosa Leite",
        "endereco": "Rua Barão do Rio Branco, Brasília",
        "coords": [
          -36.4153,
          -10.3735
        ],
        "secoes": [
          12,
          13,
          14,
          15,
          16,
          17,
          18,
          19,
          20
        ],
        "qtd_secoes": 9,
        "eleitores": 2950,
        "rymes": 1190,
        "rymes_pct": "40.3%",
        "kayro": 890,
        "kayro_pct": "30.2%",
        "antonino": 870,
        "antonino_pct": "29.5%",
        "vencedor": "Rymes (MDB)",
        "lider_partido": "MDB",
        "status": "Consolidado",
        "vereador_top": "José Erisvaldo (MDB) - 148 votos"
      }
    },
    {
      "type": "Feature",
      "geometry": {
        "type": "Polygon",
        "coordinates": [
          [
            [
              -36.36278918322296,
              -10.371602373068432
            ],
            [
              -36.35101449152552,
              -10.327179672573541
            ],
            [
              -36.3304978,
              -10.3355829
            ],
            [
              -36.3148241,
              -10.3468433
            ],
            [
              -36.3104503,
              -10.3476756
            ],
            [
              -36.3084482,
              -10.3460695
            ],
            [
              -36.3036942,
              -10.3442554
            ],
            [
              -36.3013825,
              -10.3445564
            ],
            [
              -36.293,
              -10.354
            ],
            [
              -36.3,
              -10.362
            ],
            [
              -36.3063825,
              -10.3643997
            ],
            [
              -36.335,
              -10.403
            ],
            [
              -36.33706752655539,
              -10.406969650986342
            ],
            [
              -36.36278918322296,
              -10.371602373068432
            ]
          ]
        ]
      },
      "properties": {
        "id": "peba",
        "nome": "Povoado Pontal do Peba",
        "escola": "E. M. Dep. João Beltrão Siqueira",
        "endereco": "Av. Beira Mar, Pontal do Peba",
        "coords": [
          -36.3363,
          -10.3639
        ],
        "secoes": [
          21,
          22,
          23,
          24,
          25,
          26,
          27,
          28
        ],
        "qtd_secoes": 8,
        "eleitores": 2620,
        "rymes": 1210,
        "rymes_pct": "46.2%",
        "kayro": 810,
        "kayro_pct": "30.9%",
        "antonino": 600,
        "antonino_pct": "22.9%",
        "vencedor": "Rymes (MDB)",
        "lider_partido": "MDB",
        "status": "Forte Base Tradicional",
        "vereador_top": "Everton Vasconcelos (Solidariedade) - 184 votos"
      }
    },
    {
      "type": "Feature",
      "geometry": {
        "type": "Polygon",
        "coordinates": [
          [
            [
              -36.44202975786734,
              -10.3599305229119
            ],
            [
              -36.47970418615822,
              -10.41916561799576
            ],
            [
              -36.4861469,
              -10.4227991
            ],
            [
              -36.501,
              -10.404
            ],
            [
              -36.502,
              -10.404
            ],
            [
              -36.5029901,
              -10.3920049
            ],
            [
              -36.493,
              -10.388
            ],
            [
              -36.488,
              -10.382
            ],
            [
              -36.49,
              -10.378
            ],
            [
              -36.5007773,
              -10.3806092
            ],
            [
              -36.5031559,
              -10.3789603
            ],
            [
              -36.5035668,
              -10.3774855
            ],
            [
              -36.5048852,
              -10.3782915
            ],
            [
              -36.505815,
              -10.3778772
            ],
            [
              -36.5049909,
              -10.3754455
            ],
            [
              -36.5058167,
              -10.3748867
            ],
            [
              -36.5064175,
              -10.3724735
            ],
            [
              -36.5048497,
              -10.3667873
            ],
            [
              -36.5032568,
              -10.3669977
            ],
            [
              -36.5025691,
              -10.3657077
            ],
            [
              -36.4994148,
              -10.3667314
            ],
            [
              -36.4940075,
              -10.3657922
            ],
            [
              -36.4924164,
              -10.3650824
            ],
            [
              -36.4906783,
              -10.3627922
            ],
            [
              -36.4898661,
              -10.3586578
            ],
            [
              -36.4903382,
              -10.3576657
            ],
            [
              -36.493117,
              -10.3562937
            ],
            [
              -36.4948336,
              -10.3573702
            ],
            [
              -36.4964397,
              -10.3544652
            ],
            [
              -36.4922983,
              -10.3505601
            ],
            [
              -36.491336,
              -10.3510483
            ],
            [
              -36.490424,
              -10.3488952
            ],
            [
              -36.4735046,
              -10.3394489
            ],
            [
              -36.461231707516774,
              -10.333712476275169
            ],
            [
              -36.44202975786734,
              -10.3599305229119
            ]
          ]
        ]
      },
      "properties": {
        "id": "penedinho",
        "nome": "Povoado Penedinho",
        "escola": "E. M. Prof. Uilson Ferreira Costa",
        "endereco": "Vila do Penedinho, Zona Ribeirinha",
        "coords": [
          -36.4678,
          -10.3587
        ],
        "secoes": [
          29,
          30,
          31,
          32,
          33,
          34
        ],
        "qtd_secoes": 6,
        "eleitores": 1980,
        "rymes": 720,
        "rymes_pct": "36.4%",
        "kayro": 790,
        "kayro_pct": "39.9%",
        "antonino": 470,
        "antonino_pct": "23.7%",
        "vencedor": "Kayro (PP)",
        "lider_partido": "PP",
        "status": "Vitória Oposição",
        "vereador_top": "Wisney Ramos (PSD) - 142 votos"
      }
    },
    {
      "type": "Feature",
      "geometry": {
        "type": "Polygon",
        "coordinates": [
          [
            [
              -36.37355957090034,
              -10.372984413965089
            ],
            [
              -36.36278918322296,
              -10.371602373068432
            ],
            [
              -36.33706752655539,
              -10.406969650986342
            ],
            [
              -36.385,
              -10.499
            ],
            [
              -36.3948018,
              -10.5045287
            ],
            [
              -36.3946461,
              -10.4996388
            ],
            [
              -36.3959408,
              -10.4968722
            ],
            [
              -36.398959,
              -10.4939581
            ],
            [
              -36.403575,
              -10.486978
            ],
            [
              -36.421952,
              -10.442857
            ],
            [
              -36.427273698486076,
              -10.434071068866524
            ],
            [
              -36.37355957090034,
              -10.372984413965089
            ]
          ]
        ]
      },
      "properties": {
        "id": "potengy",
        "nome": "Povoado Potengy & Várzea",
        "escola": "G. E. Faustino Vitor de Araújo",
        "endereco": "Povoado Potengy, Margem Sul",
        "coords": [
          -36.3912,
          -10.4381
        ],
        "secoes": [
          35,
          36,
          37,
          38,
          39
        ],
        "qtd_secoes": 5,
        "eleitores": 1640,
        "rymes": 610,
        "rymes_pct": "37.2%",
        "kayro": 467,
        "kayro_pct": "28.5%",
        "antonino": 563,
        "antonino_pct": "34.3%",
        "vencedor": "Rymes (MDB)",
        "lider_partido": "MDB",
        "status": "Terceira Via Forte",
        "vereador_top": "Fellype Santos (PSB) - 110 votos"
      }
    },
    {
      "type": "Feature",
      "geometry": {
        "type": "Polygon",
        "coordinates": [
          [
            [
              -36.36278918322296,
              -10.371602373068432
            ],
            [
              -36.37355957090034,
              -10.372984413965089
            ],
            [
              -36.41095385742188,
              -10.366787646484374
            ],
            [
              -36.44202975786734,
              -10.3599305229119
            ],
            [
              -36.461231707516774,
              -10.333712476275169
            ],
            [
              -36.4591003,
              -10.3333296
            ],
            [
              -36.4474823,
              -10.3351283
            ],
            [
              -36.4400364,
              -10.3306979
            ],
            [
              -36.4299892,
              -10.3289774
            ],
            [
              -36.428401,
              -10.3272086
            ],
            [
              -36.4261214,
              -10.3268728
            ],
            [
              -36.4231693,
              -10.3295838
            ],
            [
              -36.4212845,
              -10.3299222
            ],
            [
              -36.4194703,
              -10.3288154
            ],
            [
              -36.4159533,
              -10.3282632
            ],
            [
              -36.4152232,
              -10.3275665
            ],
            [
              -36.4150998,
              -10.3234728
            ],
            [
              -36.4134838,
              -10.3220501
            ],
            [
              -36.4117504,
              -10.322383
            ],
            [
              -36.4105805,
              -10.3213692
            ],
            [
              -36.4104532,
              -10.3195477
            ],
            [
              -36.4111823,
              -10.3188418
            ],
            [
              -36.4081969,
              -10.3137582
            ],
            [
              -36.4056511,
              -10.3153709
            ],
            [
              -36.4030426,
              -10.3147677
            ],
            [
              -36.4027417,
              -10.3102593
            ],
            [
              -36.3996366,
              -10.3075739
            ],
            [
              -36.3959393,
              -10.3059196
            ],
            [
              -36.3952121,
              -10.3078513
            ],
            [
              -36.3930972,
              -10.3098139
            ],
            [
              -36.35101449152552,
              -10.327179672573541
            ],
            [
              -36.36278918322296,
              -10.371602373068432
            ]
          ]
        ]
      },
      "properties": {
        "id": "retiro",
        "nome": "Povoado Retiro & Pixaim",
        "escola": "G. E. José Gonçalves",
        "endereco": "Estrada do Retiro, Zona Rural Norte",
        "coords": [
          -36.3885,
          -10.3421
        ],
        "secoes": [
          40,
          41,
          42,
          43,
          44
        ],
        "qtd_secoes": 5,
        "eleitores": 1596,
        "rymes": 600,
        "rymes_pct": "37.6%",
        "kayro": 490,
        "kayro_pct": "30.7%",
        "antonino": 507,
        "antonino_pct": "31.7%",
        "vencedor": "Rymes (MDB)",
        "lider_partido": "MDB",
        "status": "Equilíbrio Tríplice",
        "vereador_top": "Eufrásio Tenório (PSD) - 105 votos"
      }
    }
  ]
}